ORBCOMM FM33 [-]        
1 25983U 99065D   24102.69759301  .00001352  00000+0  49421-3 0  9998
2 25983  45.0282 246.4318 0007432  55.2434 319.1245 14.37511709273923
ORBCOMM FM36 [-]        
1 25984U 99065E   24102.90065900  .00001093  00000+0  42632-3 0  9997
2 25984  45.0408 330.4812 0003240 296.5301  63.5214 14.35384473272988
ORBCOMM FM35 [+]        
1 25985U 99065F   24102.93443739  .00000970  00000+0  38689-3 0  9991
2 25985  45.0411 332.8806 0003459  38.4056 321.7038 14.35001723272790
ORBCOMM FM34 [-]        
1 25986U 99065G   24102.90417943  .00001021  00000+0  40472-3 0  9998
2 25986  45.0403 333.5520 0003814 345.8921  14.1820 14.34963404272945
ORBCOMM FM38 [-]        
1 33060U 08031A   24102.55230820  .00002102  00000+0  32206-3 0  9998
2 33060  48.4402 205.9236 0005627 341.2565  18.8141 14.77276377850848
ORBCOMM FM41 [-]        
1 33061U 08031B   24103.03061619  .00001924  00000+0  29910-3 0  9990
2 33061  48.4437 210.2126 0004932 328.4454 202.2748 14.77010163850858
ORBCOMM FM29 [-]        
1 33062U 08031C   24102.58225485  .00002237  00000+0  34366-3 0  9992
2 33062  48.4389 220.3676 0006750 327.3324  46.5375 14.76930302850266
ORBCOMM FM39 [-]        
1 33063U 08031D   24102.66124037  .00002011  00000+0  31881-3 0  9992
2 33063  48.4397 240.2956 0007818 305.2873  54.7309 14.75967038849977
